IRIDIUM 64 [+]          
1 25287U 98021C   16258.29194832  .00000198  00000-0  63710-4 0  9993
2 25287  86.4002 339.2972 0002371  93.7814 266.3652 14.34223174965456
IRIDIUM 65 [+]          
1 25288U 98021D   16258.29828883  .00000199  00000-0  63889-4 0  9992
2 25288  86.3999 339.2030 0002334  99.9390 260.2070 14.34224279965478
IRIDIUM 66 [+]          
1 25289U 98021E   16258.31266267  .00000014  00000-0 -21383-5 0  9999
2 25289  86.3998 339.1028 0002188  98.7390 302.8121 14.34220368965473
IRIDIUM 67 [+]          
1 25290U 98021F   16258.38074160  .00000014  00000-0 -19691-5 0  9996
2 25290  86.4000 339.2066 0002232  97.3436 262.8013 14.34224071965491
IRIDIUM 68 [+]          
1 25291U 98021G   16258.24751866  .00000186  00000-0  59264-4 0  9995
2 25291  86.4002 339.3757 0002298  96.0968 264.0489 14.34223557965444
IRIDIUM 69 [-]          
1 25319U 98026A   16258.33034540  .00000123  00000-0  33566-4 0  9992
2 25319  86.4038   1.7738 0004142  97.6850 262.4818 14.38612911963378
IRIDIUM 71 [-]          
1 25320U 98026B   16258.33025863  .00000119  00000-0  32193-4 0  9992
2 25320  86.4022 357.7983 0003311 130.7180 229.4307 14.39027679963795
IRIDIUM 70 [+]          
1 25342U 98032A   16258.28399681  .00000014  00000-0 -20436-5 0  9992
2 25342  86.4005 339.5892 0002195  99.4491 317.6632 14.34220169959556
IRIDIUM 72 [+]          
1 25343U 98032B   16258.33000021  .00000186  00000-0  59341-4 0  9991
2 25343  86.3999 339.1996 0002269  97.0780 263.0673 14.34224484959560
IRIDIUM 73 [-]          
1 25344U 98032C   16258.25998892  .00000157  00000-0  36054-4 0  9999
2 25344  86.4441 319.5557 0001612  94.5999 265.5389 14.48967173967591
IRIDIUM 74 [S]          
1 25345U 98032D   16258.28698091  .00000224  00000-0  60931-4 0  9997
2 25345  86.4509 339.5602 0002481  93.0021 325.0120 14.42963633962967
IRIDIUM 75 [+]          
1 25346U 98032E   16258.27750747  .00000014  00000-0 -20404-5 0  9994
2 25346  86.4002 339.4641 0002208  96.1842 320.3725 14.34223730960123
IRIDIUM 3 [+]           
1 25431U 98048A   16258.40279946  .00000159  00000-0  49561-4 0  9991
2 25431  86.4004  10.9984 0002189  99.5948 324.1200 14.34221314946088
IRIDIUM 76 [+]          
1 25432U 98048B   16258.42251971  .00000169  00000-0  53256-4 0  9999
2 25432  86.4001  10.7535 0002032  96.4700 330.8084 14.34221439946076
IRIDIUM 82 [+]          
1 25467U 98051A   16258.16942807  .00000223  00000-0  72626-4 0  9990
2 25467  86.3967 137.5910 0002418  84.3499 275.7973 14.34220978947058
IRIDIUM 81 [+]          
1 25468U 98051B   16258.16307962  .00000154  00000-0  48017-4 0  9998
2 25468  86.3980 137.1939 0002119  82.0358 278.1079 14.34219037943276
IRIDIUM 80 [+]          
1 25469U 98051C   16258.24081891  .00000167  00000-0  52550-4 0  9999
2 25469  86.3992 137.4340 0002346  76.9949  62.5001 14.34218117943288
IRIDIUM 77 [+]          
1 25471U 98051E   16258.24429661  .00000173  00000-0  54760-4 0  9995
2 25471  86.3974 137.0293 0002042  84.6844  39.9758 14.34218407948483
IRIDIUM 2 [-]           
1 25527U 98066A   16258.23383195  .00002850  00000-0  14802-3 0  9999
2 25527  85.5341 195.0046 0010940  37.4148 322.7851 15.15614730976064
IRIDIUM 86 [+]          
1 25528U 98066B   16258.52753742 -.00000020  00000-0 -14383-4 0  9995
2 25528  86.3923 105.0812 0001997  86.9006 273.2419 14.34217208939851
IRIDIUM 84 [+]          
1 25530U 98066D   16258.48956581 -.00000013  00000-0 -11829-4 0  9993
2 25530  86.3924 105.2575 0002034  80.4563 279.6862 14.34202760937489
IRIDIUM 83 [+]          
1 25531U 98066E   16258.52119386 -.00000018  00000-0 -13536-4 0  9995
2 25531  86.3928 105.3584 0002026  80.3138 279.8286 14.34217348934840
IRIDIUM 20 [+]          
1 25577U 98074A   16258.37145012  .00000164  00000-0  51425-4 0  9991
2 25577  86.3999  10.6998 0002226  97.6194 262.5255 14.34221583928901
IRIDIUM 11 [+]          
1 25578U 98074B   16258.39647091  .00000005  00000-0 -52786-5 0  9995
2 25578  86.3999  10.8940 0002326  98.4530 325.2710 14.34220575937874
IRIDIUM 14 [+]          
1 25777U 99032A   16258.29731535  .00000185  00000-0  59060-4 0  9996
2 25777  86.4001 339.2906 0002268 100.3358 320.0330 14.34223316915138
IRIDIUM 21 [+]          
1 25778U 99032B   16258.32365963  .00000193  00000-0  61730-4 0  9995
2 25778  86.3998 339.3017 0002149  94.0416 266.1025 14.34224069908576
IRIDIUM 91 [+]          
1 27372U 02005A   16258.44302227  .00000012  00000-0 -26636-5 0  9996
2 27372  86.3973  43.0817 0002327  91.0062 326.0168 14.34210915772107
IRIDIUM 90 [S]          
1 27373U 02005B   16258.12216855 -.00000002  00000-0 -67399-5 0  9994
2 27373  86.4439 105.4994 0001935  85.0699 275.0723 14.42956474771541
IRIDIUM 94 [+]          
1 27374U 02005C   16258.48244994  .00000167  00000-0  52520-4 0  9998
2 27374  86.4001  10.9812 0001535 115.2431 294.0920 14.34222238776430
IRIDIUM 95 [+]          
1 27375U 02005D   16258.47005446  .00000012  00000-0 -26334-5 0  9990
2 27375  86.3971  42.8523 0001947  90.8603 269.2816 14.34213101771392
IRIDIUM 96 [+]          
1 27376U 02005E   16258.44806587 -.00000025  00000-0 -16079-4 0  9992
2 27376  86.3951  74.3991 0001577  43.0993 317.0326 14.34214056776596
IRIDIUM 97 [+]          
1 27450U 02031A   16258.48624800  .00000135  00000-0  41200-4 0  9998
2 27450  86.3919  74.1596 0002255  86.6877 273.4577 14.34213857750717
IRIDIUM 98 [+]          
1 27451U 02031B   16258.21671837  .00000171  00000-0  53991-4 0  9992
2 27451  86.3975 137.6129 0002207  80.7529  32.5154 14.34218286751743
